{
  "norad_id": 60297,
  "name": "STARLINK-32034",
  "history": [
    {
      "epoch": "2026-03-28T22:06:30.656160Z",
      "apogee_km": 475.97509205436836,
      "perigee_km": 474.52765642972827,
      "latitude_deg": 2.637641716337212e-05,
      "longitude_deg": 165.22048524405673,
      "height_km": 476.2464702883578,
      "semi_major_axis_km": 6853.3883742420485,
      "eccentricity": 0.0001056,
      "inclination_deg": 53.1606,
      "raan_deg": 323.1829,
      "arg_perigee_deg": 97.6757,
      "mean_anomaly_deg": 262.4364,
      "mean_motion_rev_day": 15.30187841
    },
    {
      "epoch": "2026-03-29T09:04:52.220352Z",
      "apogee_km": 475.9686678939361,
      "perigee_km": 474.47614328258805,
      "latitude_deg": -2.5692905166274837e-05,
      "longitude_deg": -1.943435185968026,
      "height_km": 476.2250515680573,
      "semi_major_axis_km": 6853.359405588262,
      "eccentricity": 0.00010889,
      "inclination_deg": 53.1612,
      "raan_deg": 321.0595,
      "arg_perigee_deg": 98.0249,
      "mean_anomaly_deg": 262.0875,
      "mean_motion_rev_day": 15.30197543
    },
    {
      "epoch": "2026-03-30T14:51:53.329536Z",
      "apogee_km": 475.8970976950741,
      "perigee_km": 474.6030411486254,
      "latitude_deg": -3.6865349169698336e-05,
      "longitude_deg": -95.68443476805004,
      "height_km": 476.2095488494273,
      "semi_major_axis_km": 6853.387069421849,
      "eccentricity": 9.441e-05,
      "inclination_deg": 53.1615,
      "raan_deg": 315.2963,
      "arg_perigee_deg": 95.3918,
      "mean_anomaly_deg": 264.719,
      "mean_motion_rev_day": 15.30188278
    },
    {
      "epoch": "2026-03-30T21:08:05.295840Z",
      "apogee_km": 475.86400280146245,
      "perigee_km": 474.57858691967795,
      "latitude_deg": 4.754117746219839e-06,
      "longitude_deg": 168.7949375747342,
      "height_km": 476.1654720593761,
      "semi_major_axis_km": 6853.35829486057,
      "eccentricity": 9.378e-05,
      "inclination_deg": 53.1612,
      "raan_deg": 314.083,
      "arg_perigee_deg": 94.0618,
      "mean_anomaly_deg": 266.049,
      "mean_motion_rev_day": 15.30197915
    },
    {
      "epoch": "2026-03-31T08:06:28.047168Z",
      "apogee_km": 475.93889968681833,
      "perigee_km": 474.5689068452548,
      "latitude_deg": 1.506952292440628e-05,
      "longitude_deg": 1.626204130339592,
      "height_km": 476.2141112860856,
      "semi_major_axis_km": 6853.390903266036,
      "eccentricity": 9.995e-05,
      "inclination_deg": 53.161,
      "raan_deg": 311.9597,
      "arg_perigee_deg": 95.1647,
      "mean_anomaly_deg": 264.9468,
      "mean_motion_rev_day": 15.30186994
    }
  ]
}